{
    "links": {
        "self": "http://www.neowsapp.com/rest/v1/neo/3774373?api_key=iIulBulltgU6a56xZRHN4H3l9WmuAYTsLGpBGhQ2"
    },
    "id": "3774373",
    "neo_reference_id": "3774373",
    "name": "(2017 HL49)",
    "designation": "2017 HL49",
    "nasa_jpl_url": "http://ssd.jpl.nasa.gov/sbdb.cgi?sstr=3774373",
    "absolute_magnitude_h": 23.3,
    "estimated_diameter": {
        "kilometers": {
            "estimated_diameter_min": 0.058150704,
            "estimated_diameter_max": 0.130028927
        },
        "meters": {
            "estimated_diameter_min": 58.1507039646,
            "estimated_diameter_max": 130.0289270043
        },
        "miles": {
            "estimated_diameter_min": 0.0361331611,
            "estimated_diameter_max": 0.0807962044
        },
        "feet": {
            "estimated_diameter_min": 190.7831555951,
            "estimated_diameter_max": 426.6041048727
        }
    },
    "is_potentially_hazardous_asteroid": false,
    "close_approach_data": [
        {
            "close_approach_date": "2017-04-30",
            "close_approach_date_full": "2017-Apr-30 02:52",
            "epoch_date_close_approach": 1493520720000,
            "relative_velocity": {
                "kilometers_per_second": "2.829766837",
                "kilometers_per_hour": "10187.1606133197",
                "miles_per_hour": "6329.9054377597"
            },
            "miss_distance": {
                "astronomical": "0.2730925652",
                "lunar": "106.2330078628",
                "kilometers": "40854066.066756124",
                "miles": "25385539.5107735512"
            },
            "orbiting_body": "Earth"
        }
    ],
    "orbital_data": {
        "orbit_id": "3",
        "orbit_determination_date": "2017-05-23 06:18:54",
        "first_observation_date": "2017-04-27",
        "last_observation_date": "2017-05-22",
        "data_arc_in_days": 25,
        "observations_used": 21,
        "orbit_uncertainty": "7",
        "minimum_orbit_intersection": ".265753",
        "jupiter_tisserand_invariant": "3.353",
        "epoch_osculation": "2459000.5",
        "eccentricity": ".4740958268812279",
        "semi_major_axis": "2.415323486181733",
        "inclination": "2.747838154622312",
        "ascending_node_longitude": "178.4458233467034",
        "orbital_period": "1371.075541129025",
        "perihelion_distance": "1.270228700814754",
        "perihelion_argument": "37.0160627108606",
        "aphelion_distance": "3.560418271548712",
        "perihelion_time": "2459236.040428033155",
        "mean_anomaly": "298.1547175569108",
        "mean_motion": ".2625675896045485",
        "equinox": "J2000",
        "orbit_class": {
            "orbit_class_type": "AMO",
            "orbit_class_description": "Near-Earth asteroid orbits similar to that of 1221 Amor",
            "orbit_class_range": "1.017 AU < q (perihelion) < 1.3 AU"
        }
    },
    "is_sentry_object": false
}